[{"OBJECT_NAME":"YAOGAN-30 02C","OBJECT_ID":"2017-058C","EPOCH":"2026-03-09T23:23:41.320320","MEAN_MOTION":15.0385567,"ECCENTRICITY":0.00042194,"INCLINATION":34.9965,"RA_OF_ASC_NODE":266.8068,"ARG_OF_PERICENTER":49.9722,"MEAN_ANOMALY":310.1357,"EPHEMERIS_TYPE":0,"CLASSIFICATION_TYPE":"U","NORAD_CAT_ID":42947,"ELEMENT_SET_NO":999,"REV_AT_EPOCH":46087,"BSTAR":0.00031396475,"MEAN_MOTION_DOT":4.384e-5,"MEAN_MOTION_DDOT":0},{"OBJECT_NAME":"STARLINK-5540","OBJECT_ID":"2023-058Z","EPOCH":"2026-03-09T22:42:45.465984","MEAN_MOTION":15.05638746,"ECCENTRICITY":0.00020434,"INCLINATION":97.6037,"RA_OF_ASC_NODE":71.4461,"ARG_OF_PERICENTER":87.8515,"MEAN_ANOMALY":272.2946,"EPHEMERIS_TYPE":0,"CLASSIFICATION_TYPE":"U","NORAD_CAT_ID":56340,"ELEMENT_SET_NO":999,"REV_AT_EPOCH":15823,"BSTAR":4.6171975e-5,"MEAN_MOTION_DOT":6.05e-6,"MEAN_MOTION_DDOT":0}]
